{
    "links": {
        "self": "http://www.neowsapp.com/rest/v1/neo/3841772?api_key=iIulBulltgU6a56xZRHN4H3l9WmuAYTsLGpBGhQ2"
    },
    "id": "3841772",
    "neo_reference_id": "3841772",
    "name": "(2019 JH3)",
    "designation": "2019 JH3",
    "nasa_jpl_url": "http://ssd.jpl.nasa.gov/sbdb.cgi?sstr=3841772",
    "absolute_magnitude_h": 25.3,
    "estimated_diameter": {
        "kilometers": {
            "estimated_diameter_min": 0.0231502122,
            "estimated_diameter_max": 0.0517654482
        },
        "meters": {
            "estimated_diameter_min": 23.150212221,
            "estimated_diameter_max": 51.7654482198
        },
        "miles": {
            "estimated_diameter_min": 0.0143848705,
            "estimated_diameter_max": 0.0321655483
        },
        "feet": {
            "estimated_diameter_min": 75.9521422633,
            "estimated_diameter_max": 169.8341531374
        }
    },
    "is_potentially_hazardous_asteroid": false,
    "close_approach_data": [
        {
            "close_approach_date": "2019-05-08",
            "close_approach_date_full": "2019-May-08 03:09",
            "epoch_date_close_approach": 1557284940000,
            "relative_velocity": {
                "kilometers_per_second": "5.5059969204",
                "kilometers_per_hour": "19821.5889133782",
                "miles_per_hour": "12316.3645112044"
            },
            "miss_distance": {
                "astronomical": "0.0830411315",
                "lunar": "32.3030001535",
                "kilometers": "12422776.394789905",
                "miles": "7719155.309734489"
            },
            "orbiting_body": "Earth"
        }
    ],
    "orbital_data": {
        "orbit_id": "2",
        "orbit_determination_date": "2019-05-12 08:24:08",
        "first_observation_date": "2019-05-07",
        "last_observation_date": "2019-05-11",
        "data_arc_in_days": 4,
        "observations_used": 22,
        "orbit_uncertainty": "9",
        "minimum_orbit_intersection": ".0809612",
        "jupiter_tisserand_invariant": "3.656",
        "epoch_osculation": "2458612.5",
        "eccentricity": ".4665752679966619",
        "semi_major_axis": "2.040331451811055",
        "inclination": "3.563333620646404",
        "ascending_node_longitude": "50.65802936093122",
        "orbital_period": "1064.509430725585",
        "perihelion_distance": "1.088363257880294",
        "perihelion_argument": "169.6768955626263",
        "aphelion_distance": "2.992299645741817",
        "perihelion_time": "2458606.228913217441",
        "mean_anomaly": "2.120780874794536",
        "mean_motion": ".3381839461531297",
        "equinox": "J2000",
        "orbit_class": {
            "orbit_class_type": "AMO",
            "orbit_class_description": "Near-Earth asteroid orbits similar to that of 1221 Amor",
            "orbit_class_range": "1.017 AU < q (perihelion) < 1.3 AU"
        }
    },
    "is_sentry_object": false
}